{"type": "FeatureCollection", "features": [ {"type": "Feature", "properties": {"norad_id": 42987, "name": "SKYSAT-C11", "group": "resource", "lat": 27.62531770344039, "lon": 133.19025332105932, "alt_km": 421.29209661479763, "timestamp": "2025-12-25T07:00:33.700147+00:00", "meta": {"OBJECT_NAME": "SKYSAT-C11", "OBJECT_ID": "2017-068A", "EPOCH": "2025-12-24T21:34:50.650176", "MEAN_MOTION": 15.4796518, "ECCENTRICITY": 0.00011157, "INCLINATION": 97.4153, "RA_OF_ASC_NODE": 136.6958, "ARG_OF_PERICENTER": 96.4287, "MEAN_ANOMALY": 263.709, "EPHEMERIS_TYPE": 0, "CLASSIFICATION_TYPE": "U", "NORAD_CAT_ID": 42987, "ELEMENT_SET_NO": 999, "REV_AT_EPOCH": 45619, "BSTAR": 0.00045752243, "MEAN_MOTION_DOT": 0.00023827, "MEAN_MOTION_DDOT": 0}, "tle": {"line1": "1 42987U 17068A   25358.89919734  .00023827  00000+0  45752-3 0  9992", "line2": "2 42987  97.4153 136.6958 0001115  96.4287 263.7090 15.47965180456191"}}, "geometry": {"type": "Point", "coordinates": [133.19025332105932, 27.62531770344039]}}, {"type": "Feature", "properties": {"norad_id": 42988, "name": "SKYSAT-C10", "group": "resource", "lat": 52.03776638096522, "lon": -40.19580154768003, "alt_km": 463.068174278661, "timestamp": "2025-12-25T07:00:33.700157+00:00", "meta": {"OBJECT_NAME": "SKYSAT-C10", "OBJECT_ID": "2017-068B", "EPOCH": "2025-12-24T19:29:00.783168", "MEAN_MOTION": 15.32071049, "ECCENTRICITY": 0.00043105, "INCLINATION": 97.4272, "RA_OF_ASC_NODE": 129.6977, "ARG_OF_PERICENTER": 75.127, "MEAN_ANOMALY": 285.0448, "EPHEMERIS_TYPE": 0, "CLASSIFICATION_TYPE": "U", "NORAD_CAT_ID": 42988, "ELEMENT_SET_NO": 999, "REV_AT_EPOCH": 45564, "BSTAR": 0.00040464637, "MEAN_MOTION_DOT": 0.00012461, "MEAN_MOTION_DDOT": 0}, "tle": {"line1": "1 42988U 17068B   25358.81181462  .00012461  00000+0  40465-3 0  9992", "line2": "2 42988  97.4272 129.6977 0004310  75.1270 285.0448 15.32071049455642"}}, "geometry": {"type": "Point", "coordinates": [-40.19580154768003, 52.03776638096522]}}, {"type": "Feature", "properties": {"norad_id": 42989, "name": "SKYSAT-C9", "group": "resource", "lat": 22.52896857929931, "lon": -47.25396492793817, "alt_km": 459.0461568250548, "timestamp": "2025-12-25T07:00:33.700168+00:00", "meta": {"OBJECT_NAME": "SKYSAT-C9", "OBJECT_ID": "2017-068C", "EPOCH": "2025-12-24T20:56:58.064064", "MEAN_MOTION": 15.36350651, "ECCENTRICITY": 0.00102703, "INCLINATION": 97.4196, "RA_OF_ASC_NODE": 129.2247, "ARG_OF_PERICENTER": 48.6623, "MEAN_ANOMALY": 311.5503, "EPHEMERIS_TYPE": 0, "CLASSIFICATION_TYPE": "U", "NORAD_CAT_ID": 42989, "ELEMENT_SET_NO": 999, "REV_AT_EPOCH": 45594, "BSTAR": 0.00039865408, "MEAN_MOTION_DOT": 0.00014082, "MEAN_MOTION_DDOT": 0}, "tle": {"line1": "1 42989U 17068C   25358.87289426  .00014082  00000+0  39865-3 0  9991", "line2": "2 42989  97.4196 129.2247 0010270  48.6623 311.5503 15.36350651455946"}}, "geometry": {"type": "Point", "coordinates": [-47.25396492793817, 22.52896857929931]}}, {"type": "Feature", "properties": {"norad_id": 42990, "name": "SKYSAT-C8", "group": "resource", "lat": -14.225307021396844, "lon": 131.24484223919188, "alt_km": 470.8858073293313, "timestamp": "2025-12-25T07:00:33.700178+00:00", "meta": {"OBJECT_NAME": "SKYSAT-C8", "OBJECT_ID": "2017-068D", "EPOCH": "2025-12-24T20:06:25.740288", "MEAN_MOTION": 15.33182235, "ECCENTRICITY": 9.448e-05, "INCLINATION": 97.4288, "RA_OF_ASC_NODE": 128.8929, "ARG_OF_PERICENTER": 271.5017, "MEAN_ANOMALY": 88.6117, "EPHEMERIS_TYPE": 0, "CLASSIFICATION_TYPE": "U", "NORAD_CAT_ID": 42990, "ELEMENT_SET_NO": 999, "REV_AT_EPOCH": 45556, "BSTAR": 0.00038956306, "MEAN_MOTION_DOT": 0.00012417, "MEAN_MOTION_DDOT": 0}, "tle": {"line1": "1 42990U 17068D   25358.83779792  .00012417  00000+0  38956-3 0  9999", "line2": "2 42990  97.4288 128.8929 0000944 271.5017  88.6117 15.33182235455562"}}, "geometry": {"type": "Point", "coordinates": [131.24484223919188, -14.225307021396844]}}, {"type": "Feature", "properties": {"norad_id": 42991, "name": "SKYSAT-C7", "group": "resource", "lat": 5.664279965723666, "lon": -48.87843512080306, "alt_km": 474.7351403219136, "timestamp": "2025-12-25T07:00:33.700188+00:00", "meta": {"OBJECT_NAME": "SKYSAT-C7", "OBJECT_ID": "2017-068E", "EPOCH": "2025-12-24T22:25:01.461216", "MEAN_MOTION": 15.32579579, "ECCENTRICITY": 0.00068418, "INCLINATION": 97.4295, "RA_OF_ASC_NODE": 130.0206, "ARG_OF_PERICENTER": 18.698, "MEAN_ANOMALY": 341.4512, "EPHEMERIS_TYPE": 0, "CLASSIFICATION_TYPE": "U", "NORAD_CAT_ID": 42991, "ELEMENT_SET_NO": 999, "REV_AT_EPOCH": 45564, "BSTAR": 0.00037998659, "MEAN_MOTION_DOT": 0.00011889, "MEAN_MOTION_DDOT": 0}, "tle": {"line1": "1 42991U 17068E   25358.93404469  .00011889  00000+0  37999-3 0  9995", "line2": "2 42991  97.4295 130.0206 0006841  18.6980 341.4512 15.32579579455643"}}, "geometry": {"type": "Point", "coordinates": [-48.87843512080306, 5.664279965723666]}}, {"type": "Feature", "properties": {"norad_id": 42992, "name": "SKYSAT-C6", "group": "resource", "lat": -71.60111524055816, "lon": -72.30061446493202, "alt_km": 480.88707686625, "timestamp": "2025-12-25T07:00:33.700198+00:00", "meta": {"OBJECT_NAME": "SKYSAT-C6", "OBJECT_ID": "2017-068F", "EPOCH": "2025-12-24T20:30:02.164608", "MEAN_MOTION": 15.31732317, "ECCENTRICITY": 0.00047662, "INCLINATION": 97.4329, "RA_OF_ASC_NODE": 130.3693, "ARG_OF_PERICENTER": 49.5424, "MEAN_ANOMALY": 310.6233, "EPHEMERIS_TYPE": 0, "CLASSIFICATION_TYPE": "U", "NORAD_CAT_ID": 42992, "ELEMENT_SET_NO": 999, "REV_AT_EPOCH": 45561, "BSTAR": 0.00038047386, "MEAN_MOTION_DOT": 0.00011588, "MEAN_MOTION_DDOT": 0}, "tle": {"line1": "1 42992U 17068F   25358.85419172  .00011588  00000+0  38047-3 0  9995", "line2": "2 42992  97.4329 130.3693 0004766  49.5424 310.6233 15.31732317455610"}}, "geometry": {"type": "Point", "coordinates": [-72.30061446493202, -71.60111524055816]}}, {"type": "Feature", "properties": {"norad_id": 43111, "name": "CARTOSAT-2F", "group": "resource", "lat": 17.966191018643045, "lon": -120.84954653503792, "alt_km": 507.932997758493, "timestamp": "2025-12-25T07:00:33.700208+00:00", "meta": {"OBJECT_NAME": "CARTOSAT-2F", "OBJECT_ID": "2018-004A", "EPOCH": "2025-12-24T22:23:45.641760", "MEAN_MOTION": 15.19236745, "ECCENTRICITY": 0.00016326, "INCLINATION": 97.4298, "RA_OF_ASC_NODE": 56.3722, "ARG_OF_PERICENTER": 110.3275, "MEAN_ANOMALY": 249.8135, "EPHEMERIS_TYPE": 0, "CLASSIFICATION_TYPE": "U", "NORAD_CAT_ID": 43111, "ELEMENT_SET_NO": 999, "REV_AT_EPOCH": 44087, "BSTAR": 0.00018878082, "MEAN_MOTION_DOT": 3.909e-05, "MEAN_MOTION_DDOT": 0}, "tle": {"line1": "1 43111U 18004A   25358.93316715  .00003909  00000+0  18878-3 0  9996", "line2": "2 43111  97.4298  56.3722 0001632 110.3275 249.8135 15.19236745440875"}}, "geometry": {"type": "Point", "coordinates": [-120.84954653503792, 17.966191018643045]}}, {"type": "Feature", "properties": {"norad_id": 43259, "name": "GAOFEN-1 02", "group": "resource", "lat": 23.148140305645693, "lon": -119.43396676660518, "alt_km": 638.3837963216529, "timestamp": "2025-12-25T07:00:33.700218+00:00", "meta": {"OBJECT_NAME": "GAOFEN-1 02", "OBJECT_ID": "2018-031A", "EPOCH": "2025-12-24T23:47:48.306912", "MEAN_MOTION": 14.76439065, "ECCENTRICITY": 0.00026345, "INCLINATION": 98.0786, "RA_OF_ASC_NODE": 56.7841, "ARG_OF_PERICENTER": 172.3077, "MEAN_ANOMALY": 187.8174, "EPHEMERIS_TYPE": 0, "CLASSIFICATION_TYPE": "U", "NORAD_CAT_ID": 43259, "ELEMENT_SET_NO": 999, "REV_AT_EPOCH": 41699, "BSTAR": 0.00014665953, "MEAN_MOTION_DOT": 9.68e-06, "MEAN_MOTION_DDOT": 0}, "tle": {"line1": "1 43259U 18031A   25358.99153133  .00000968  00000+0  14666-3 0  9991", "line2": "2 43259  98.0786  56.7841 0002634 172.3077 187.8174 14.76439065416996"}}, "geometry": {"type": "Point", "coordinates": [-119.43396676660518, 23.148140305645693]}}, {"type": "Feature", "properties": {"norad_id": 43260, "name": "GAOFEN-1 03", "group": "resource", "lat": -81.49321985751698, "lon": 128.6839100045474, "alt_km": 646.709098706443, "timestamp": "2025-12-25T07:00:33.700229+00:00", "meta": {"OBJECT_NAME": "GAOFEN-1 03", "OBJECT_ID": "2018-031B", "EPOCH": "2025-12-24T23:16:19.110432", "MEAN_MOTION": 14.76461091, "ECCENTRICITY": 0.00017275, "INCLINATION": 98.0781, "RA_OF_ASC_NODE": 56.6384, "ARG_OF_PERICENTER": 256.1208, "MEAN_ANOMALY": 103.9809, "EPHEMERIS_TYPE": 0, "CLASSIFICATION_TYPE": "U", "NORAD_CAT_ID": 43260, "ELEMENT_SET_NO": 999, "REV_AT_EPOCH": 41698, "BSTAR": 0.00014304268, "MEAN_MOTION_DOT": 9.44e-06, "MEAN_MOTION_DDOT": 0}, "tle": {"line1": "1 43260U 18031B   25358.96966563  .00000944  00000+0  14304-3 0  9992", "line2": "2 43260  98.0781  56.6384 0001727 256.1208 103.9809 14.76461091416980"}}, "geometry": {"type": "Point", "coordinates": [128.6839100045474, -81.49321985751698]}}, {"type": "Feature", "properties": {"norad_id": 43262, "name": "GAOFEN-1 04", "group": "resource", "lat": 41.04907408931875, "lon": 50.026210480101874, "alt_km": 637.0001076122471, "timestamp": "2025-12-25T07:00:33.700238+00:00", "meta": {"OBJECT_NAME": "GAOFEN-1 04", "OBJECT_ID": "2018-031D", "EPOCH": "2025-12-24T22:41:21.077376", "MEAN_MOTION": 14.76431124, "ECCENTRICITY": 5.433e-05, "INCLINATION": 98.0788, "RA_OF_ASC_NODE": 56.7844, "ARG_OF_PERICENTER": 63.432, "MEAN_ANOMALY": 296.6945, "EPHEMERIS_TYPE": 0, "CLASSIFICATION_TYPE": "U", "NORAD_CAT_ID": 43262, "ELEMENT_SET_NO": 999, "REV_AT_EPOCH": 41697, "BSTAR": 0.00018384139, "MEAN_MOTION_DOT": 1.227e-05, "MEAN_MOTION_DDOT": 0}, "tle": {"line1": "1 43262U 18031D   25358.94538284  .00001227  00000+0  18384-3 0  9994", "line2": "2 43262  98.0788  56.7844 0000543  63.4320 296.6945 14.76431124416974"}}, "geometry": {"type": "Point", "coordinates": [50.026210480101874, 41.04907408931875]}}]}